LEMUR-2-ALISIA          
1 62706U 25009DB  26204.21874427  .00007720  00000+0  57394-3 0  9992
2 62706  97.6960 286.1551 0005036 108.8576 251.3196 15.03260205105576
LEMUR-2-ROUNDTRIPPER    
1 62711U 25009DG  26204.21828631  .00007728  00000+0  55869-3 0  9997
2 62711  97.7239 286.8567 0004278  48.2093 311.9498 15.04319119 83049
LEMUR-2-MYNAMEISJEFF    
1 62712U 25009DH  26204.48288614  .00008034  00000+0  58065-3 0  9990
2 62712  97.7285 287.5241 0004251  80.9119 279.2587 15.04317939 83088
LEMUR-2-LEIA-PHILIP     
1 63246U 25052AN  26204.15555409  .00000929  00000+0  84898-4 0  9993
2 63246  97.6784  95.4948 0005108 103.2748 256.9044 14.97399507 74052
LEMUR-2-LIA-MARTIN      
1 63248U 25052AQ  26204.14664546  .00003487  00000+0  29966-3 0  9993
2 63248  97.6843  96.0188 0004639  70.2989 289.8734 14.98066177 74068
LEMUR-2-DELOITTE-1      
1 63259U 25052BB  26204.52921548  .00003695  00000+0  31917-3 0  9995
2 63259  97.6887  96.7258 0002445  52.2157 307.9287 14.97832388 74130
LEMUR-2-EMERSONROSE     
1 63261U 25052BD  26204.13458882  .00003496  00000+0  29085-3 0  9993
2 63261  97.6884  96.9686 0002204  40.2656 319.8730 14.99336545 74121
LEMUR-2-MARACHE-FRAN    
1 63262U 25052BE  26204.48537443  .00004323  00000+0  34897-3 0  9990
2 63262  97.6805  97.6885 0006245 220.2393 139.8369 15.00359332 74200
LEMUR-2-THEFALCONER     
1 63264U 25052BG  26204.22687130  .00003182  00000+0  27730-3 0  9993
2 63264  97.6806  96.0090 0001067 198.2455 161.8729 14.97593224 74080
LEMUR-2-UNTITLED-SC     
1 63351U 25061A   26204.38317573  .00003191  00000+0  18025-3 0  9995
2 63351  97.5659 179.4910 0019994 136.0950 224.1875 15.13686102 73066
LEMUR-2-ESPERANZA       
1 63352U 25061B   26204.35793774  .00003511  00000+0  19737-3 0  9991
2 63352  97.5667 179.5681 0019602 135.5337 224.7471 15.13791134 73061
LEMUR-2-KREMPEL-BRO2    
1 63353U 25061C   26204.37460513  .00003465  00000+0  19241-3 0  9994
2 63353  97.5715 180.1640 0020673 128.5364 231.7724 15.14220632 73083
LEMUR-2-THERMORAPTOR    
1 63354U 25061D   26204.35471609  .00003819  00000+0  21122-3 0  9995
2 63354  97.5719 180.2269 0020415 127.5828 232.7261 15.14303110 73084
LEMUR-2-NEUROSPICY      
1 63355U 25061E   26204.32359137  .00003321  00000+0  18377-3 0  9990
2 63355  97.5645 179.7941 0018245 130.5929 229.6894 15.14421247 73086
LEMUR-2-TILLINFINITY    
1 63356U 25061F   26204.34492242  .00005005  00000+0  27033-3 0  9998
2 63356  97.5631 180.1312 0019639 119.7564 240.5625 15.15012196 73110
LEMUR-2-KREMPEL-BRO1    
1 63357U 25061G   26204.32301781  .00003397  00000+0  18563-3 0  9994
2 63357  97.5632 180.0154 0020288 121.0381 239.2847 15.14812963 73109
LEMUR-2-LANGER2SPACE    
1 63358U 25061H   26204.35678726  .00003657  00000+0  20147-3 0  9994
2 63358  97.5638 179.8483 0018136 128.8240 231.4614 15.14506103 73095
LEMUR-2-BALTO           
1 63395U 25052BH  26204.26936485  .00004144  00000+0  33428-3 0  9992
2 63395  97.6918  97.4751 0005024 291.9274  68.1415 15.00412940 74176
LEMUR-2-KRISH           
1 64561U 25135AK  26204.31798289  .00004798  00000+0  42741-3 0  9997
2 64561  97.7759 318.9566 0001289 111.5369 248.5989 14.96495776 59324
LEMUR-2-HUBBLE-4        
1 64565U 25135AP  26204.31392117  .00001283  00000+0  12661-3 0  9995
2 64565  97.7722 317.8046 0003257 143.4718 216.6724 14.93701183 59263
LEMUR-2-SEJONG-2        
1 64586U 25135BL  26204.60386655  .00005929  00000+0  52047-3 0  9993
2 64586  97.7713 319.3863 0004468 181.0001 179.1212 14.96969966 59395
LEMUR-2-HUBBLE-5        
1 64840U 25135BT  26204.58775908  .00001493  00000+0  14456-3 0  9990
2 64840  97.7743 318.7535 0005013 202.4078 157.6924 14.94229636 59346
LEMUR-2-KARENDARRELL    
1 64841U 25135BU  26204.26527004  .00007565  00000+0  60260-3 0  9998
2 64841  97.7722 320.4320 0013036  80.3476 279.9220 15.00584303 59424
LEMUR-2-LUCILLE-ROSE    
1 65403U 25135BV  26204.57223433  .00007392  00000+0  58873-3 0  9991
2 65403  97.7687 320.7717 0015629 163.9883 196.1838 15.00570207 54093
LEMUR-2-AFFIE-WAUWIE    
1 66295U 25248C   26204.21280272  .00020771  00000+0  74289-3 0  9996
2 66295  45.3913 279.5994 0009333 293.1633  66.8272 15.28503726 40100
OTTER SDM               
1 66678U 25276N   26204.19417198  .00006055  00000+0  28315-3 0  9996
2 66678  97.4194 277.0787 0004866 218.2161 141.8730 15.20124446 35889
LEMUR-2-STAS-GORBUK     
1 66686U 25276W   26204.15187419  .00005495  00000+0  26035-3 0  9995
2 66686  97.4227 277.0873 0004249 212.6305 147.4668 15.19715909 35873
LEMUR-2-TEODOR          
1 66768U 25276DG  26204.16186856  .00005623  00000+0  25369-3 0  9993
2 66768  97.4134 277.3795 0002068  82.7522 277.3949 15.21398312 35919
LEMUR-2-LAILA           
1 66776U 25276DQ  26204.19624638  .00005556  00000+0  24907-3 0  9992
2 66776  97.4157 277.5570 0002757  82.7172 277.4378 15.21626275 35922
